{
  "norad_id": 55773,
  "name": "STARLINK-5833",
  "history": [
    {
      "epoch": "2026-03-28T16:00:04.642560Z",
      "apogee_km": 574.354908976471,
      "perigee_km": 569.7130287897744,
      "latitude_deg": 5.7236523658998934e-05,
      "longitude_deg": 110.58599126935057,
      "height_km": 574.4906479262667,
      "semi_major_axis_km": 6950.170968883122,
      "eccentricity": 0.00033394,
      "inclination_deg": 70.0008,
      "raan_deg": 176.6892,
      "arg_perigee_deg": 269.2882,
      "mean_anomaly_deg": 90.7895,
      "mean_motion_rev_day": 14.98337089
    },
    {
      "epoch": "2026-03-29T22:26:38.482368Z",
      "apogee_km": 574.1028746040183,
      "perigee_km": 570.057848099711,
      "latitude_deg": -1.7559535388391585e-05,
      "longitude_deg": 9.496026710737874,
      "height_km": 574.1037926132891,
      "semi_major_axis_km": 6950.217361351864,
      "eccentricity": 0.000291,
      "inclination_deg": 70.0017,
      "raan_deg": 173.4905,
      "arg_perigee_deg": 281.5204,
      "mean_anomaly_deg": 78.5628,
      "mean_motion_rev_day": 14.98322087
    }
  ]
}